NORAD_CAT_ID,OBJECT_NAME,OBJECT_TYPE,EPOCH,MEAN_MOTION,ECCENTRICITY,INCLINATION,RA_OF_ASC_NODE,ARG_OF_PERICENTER,MEAN_ANOMALY,BSTAR,MEAN_MOTION_DOT,MEAN_MOTION_DDOT,TLE_LINE0,TLE_LINE1,TLE_LINE2,SEMIMAJOR_AXIS,PERIOD,APOGEE,PERIGEE,DECAYED
49746.0,STARLINK-3233,PAYLOAD,2022-11-18 13:16:06,15.08843319,0.0002469,53.2167,168.1564,37.4217,322.6947,4.6214e-05,4.47e-06,0.0,0 STARLINK-3233,1 49746U 21115Y   22322.55285085  .00000447  00000-0  46214-4 0  9995,2 49746  53.2167 168.1564 0002469  37.4217 322.6947 15.08843319 54400,6917.87,95.437,541.443,538.0269999999998,0.0
49746.0,STARLINK-3233,PAYLOAD,2022-11-18 16:26:52,15.08849503,0.0002406,53.217,167.5621,37.0073,323.1084,-0.00012193,-2.229e-05,0.0,0 STARLINK-3233,1 49746U 21115Y   22322.68532912 -.00002229  00000-0 -12193-3 0  9993,2 49746  53.2170 167.5621 0002406  37.0073 323.1084 15.08849503 53316,6917.851,95.437,541.381,538.052,0.0
49746.0,STARLINK-3233,PAYLOAD,2022-11-19 01:59:11,15.08834125,0.0002507,53.2166,165.7777,37.3154,322.8012,2.9663e-05,1.84e-06,0.0,0 STARLINK-3233,1 49746U 21115Y   22323.08277759  .00000184  00000-0  29663-4 0  9990,2 49746  53.2166 165.7777 0002507  37.3154 322.8012 15.08834125 54488,6917.898,95.438,541.498,538.029,0.0
49746.0,STARLINK-3233,PAYLOAD,2022-11-19 19:28:26,15.08838342,0.0002467,53.2166,162.5064,38.8826,321.2344,5.2642e-05,5.49e-06,0.0,0 STARLINK-3233,1 49746U 21115Y   22323.81141493  .00000549  00000-0  52642-4 0  9994,2 49746  53.2166 162.5064 0002467  38.8826 321.2344 15.08838342 53484,6917.885,95.438,541.457,538.044,0.0
49746.0,STARLINK-3233,PAYLOAD,2022-11-19 22:39:12,15.08840595,0.0002471,53.2166,161.9117,39.1142,321.0028,2.8609e-05,1.67e-06,0.0,0 STARLINK-3233,1 49746U 21115Y   22323.94389412  .00000167  00000-0  28609-4 0  9995,2 49746  53.2166 161.9117 0002471  39.1142 321.0028 15.08840595 54612,6917.879,95.438,541.453,538.034,0.0
49746.0,STARLINK-3233,PAYLOAD,2022-11-20 12:57:40,15.08842141,0.000247,53.2166,159.2353,40.1028,320.0146,7.024100000000001e-05,8.3e-06,0.0,0 STARLINK-3233,1 49746U 21115Y   22324.54005239  .00000830  00000-0  70241-4 0  9990,2 49746  53.2166 159.2353 0002470  40.1028 320.0146 15.08842141 53593,6917.874,95.437,541.448,538.03,0.0
49746.0,STARLINK-3233,PAYLOAD,2022-11-20 19:19:13,15.08840245,0.000254,53.2167,158.0463,40.0873,320.0306,0.000137,1.893e-05,0.0,0 STARLINK-3233,1 49746U 21115Y   22324.80501162  .00001893  00000-0  13700-3 0  9991,2 49746  53.2167 158.0463 0002540  40.0873 320.0306 15.08840245 53634,6917.88,95.438,541.502,537.987,0.0
49746.0,STARLINK-3233,PAYLOAD,2022-11-21 06:26:54,15.08845562,0.0002573,53.2167,155.9649,40.9416,319.1769,0.00016062,2.269e-05,0.0,0 STARLINK-3233,1 49746U 21115Y   22325.26868874  .00002269  00000-0  16062-3 0  9990,2 49746  53.2167 155.9649 0002573  40.9416 319.1769 15.08845562 54814,6917.863,95.437,541.508,537.948,0.0
49746.0,STARLINK-3233,PAYLOAD,2022-11-21 12:48:27,15.08842074,0.000251,53.2167,154.7752,44.7453,315.3742,0.00011291,1.509e-05,0.0,0 STARLINK-3233,1 49746U 21115Y   22325.53365183  .00001509  00000-0  11291-3 0  9990,2 49746  53.2167 154.7752 0002510  44.7453 315.3742 15.08842074 53745,6917.874,95.437,541.475,538.003,0.0
49746.0,STARLINK-3233,PAYLOAD,2022-11-21 15:59:14,15.08804848,0.000245,53.2173,154.1792,52.4809,307.6405,0.00056753,8.747e-05,0.0,0 STARLINK-3233,1 49746U 21115Y   22325.66614219  .00008747  00000-0  56753-3 0  9994,2 49746  53.2173 154.1792 0002450  52.4809 307.6405 15.08804848 54876,6917.988,95.44,541.548,538.158,0.0
49746.0,STARLINK-3233,PAYLOAD,2022-11-21 19:10:00,15.08835343,0.000258,53.2169,153.5861,43.1206,316.9988,1.7679e-05,-7e-08,0.0,0 STARLINK-3233,1 49746U 21115Y   22325.79861864 -.00000007  00000-0  17679-4 0  9995,2 49746  53.2169 153.5861 0002580  43.1206 316.9988 15.08835343 53785,6917.895,95.438,541.544,537.975,0.0
49746.0,STARLINK-3233,PAYLOAD,2022-11-21 22:20:46,15.08836104,0.0002586,53.2168,152.9912,43.403,316.7166,2.0476e-05,3.7e-07,0.0,0 STARLINK-3233,1 49746U 21115Y   22325.93109812  .00000037  00000-0  20476-4 0  9990,2 49746  53.2168 152.9912 0002586  43.4030 316.7166 15.08836104 54916,6917.892,95.438,541.5459999999998,537.9680000000002,0.0
49746.0,STARLINK-3233,PAYLOAD,2022-11-22 12:39:15,15.08835093,0.0002409,53.2172,150.3139,44.9274,315.1912,2.620300000000001e-05,1.29e-06,0.0,0 STARLINK-3233,1 49746U 21115Y   22326.52725870  .00000129  00000-0  26203-4 0  9990,2 49746  53.2172 150.3139 0002409  44.9274 315.1912 15.08835093 53898,6917.895,95.438,541.427,538.094,0.0
49746.0,STARLINK-3233,PAYLOAD,2022-11-22 19:00:47,15.08835883,0.0002619,53.2172,149.1257,44.7527,315.3676,5.321899999999999e-05,5.59e-06,0.0,0 STARLINK-3233,1 49746U 21115Y   22326.79221772  .00000559  00000-0  53219-4 0  9995,2 49746  53.2172 149.1257 0002619  44.7527 315.3676 15.08835883 53938,6917.893,95.438,541.57,537.946,0.0
49746.0,STARLINK-3233,PAYLOAD,2022-11-23 10:54:38,15.08842156,0.0002653,53.2171,146.1522,45.7459,314.3751,6.139600000000001e-06,-1.91e-06,0.0,0 STARLINK-3233,1 49746U 21115Y   22327.45461467 -.00000191  00000-0  61396-5 0  9995,2 49746  53.2171 146.1522 0002653  45.7459 314.3751 15.08842156 55141,6917.874,95.437,541.5740000000002,537.903,0.0
49746.0,STARLINK-3233,PAYLOAD,2022-11-23 18:51:34,15.08837045,0.000262,53.2167,144.6649,43.147,316.9727,8.0257e-05,9.89e-06,0.0,0 STARLINK-3233,1 49746U 21115Y   22327.78581616  .00000989  00000-0  80257-4 0  9990,2 49746  53.2167 144.6649 0002620  43.1470 316.9727 15.08837045 54082,6917.889,95.438,541.567,537.942,0.0
49746.0,STARLINK-3233,PAYLOAD,2022-11-24 10:45:25,15.08840612,0.000267,53.2168,141.6911,44.7034,315.4173,0.00010056,1.312e-05,0.0,0 STARLINK-3233,1 49746U 21115Y   22328.44821428  .00001312  00000-0  10056-3 0  9992,2 49746  53.2168 141.6911 0002670  44.7034 315.4173 15.08840612 54184,6917.879,95.438,541.591,537.896,0.0
49746.0,STARLINK-3233,PAYLOAD,2022-11-24 12:20:48,15.08841892,0.0002686,53.2171,141.3938,45.0575,315.0635,6.8856e-05,8.08e-06,0.0,0 STARLINK-3233,1 49746U 21115Y   22328.51445476  .00000808  00000-0  68856-4 0  9996,2 49746  53.2171 141.3938 0002686  45.0575 315.0635 15.08841892 55300,6917.875,95.437,541.5980000000002,537.881,0.0
49746.0,STARLINK-3233,PAYLOAD,2022-11-24 17:06:59,15.08833268,0.0002661,53.2169,140.5011,43.8476,316.2727,-6.2535e-06,-3.88e-06,0.0,0 STARLINK-3233,1 49746U 21115Y   22328.71318306 -.00000388  00000-0 -62535-5 0  9993,2 49746  53.2169 140.5011 0002661  43.8476 316.2727 15.08833268 55335,6917.901,95.438,541.607,537.925,0.0
49746.0,STARLINK-3233,PAYLOAD,2022-11-25 10:36:13,15.08832357,0.0002672,53.2168,137.23,44.5761,315.5446,-5.8247e-05,-1.215e-05,0.0,0 STARLINK-3233,1 49746U 21115Y   22329.44182854 -.00001215  00000-0 -58247-4 0  9995,2 49746  53.2168 137.2300 0002672  44.5761 315.5446 15.08832357 54332,6917.904,95.438,541.617,537.92,0.0
49746.0,STARLINK-3233,PAYLOAD,2022-11-25 18:33:09,15.08837522,0.0002677,53.217,135.7434,44.846,315.2748,-9.2175e-06,-4.35e-06,0.0,0 STARLINK-3233,1 49746U 21115Y   22329.77302485 -.00000435  00000-0 -92175-5 0  9997,2 49746  53.2170 135.7434 0002677  44.8460 315.2748 15.08837522 55499,6917.888000000001,95.438,541.605,537.901,0.0
49746.0,STARLINK-3233,PAYLOAD,2022-11-26 12:02:23,15.08835881,0.0002622,53.2164,132.4716,43.2915,316.8282,5.4394e-05,5.77e-06,0.0,0 STARLINK-3233,1 49746U 21115Y   22330.50166483  .00000577  00000-0  54394-4 0  9991,2 49746  53.2164 132.4716 0002622  43.2915 316.8282 15.08835881 54492,6917.893,95.438,541.572,537.944,0.0
49746.0,STARLINK-3233,PAYLOAD,2022-11-26 19:59:19,15.08836982,0.0002681,53.2169,130.9856,46.5158,313.6057,0.00011841,1.596e-05,0.0,0 STARLINK-3233,1 49746U 21115Y   22330.83286331  .00001596  00000-0  11841-3 0  9993,2 49746  53.2169 130.9856 0002681  46.5158 313.6057 15.08836982 55652,6917.89,95.438,541.609,537.9,0.0
49746.0,STARLINK-3233,PAYLOAD,2022-11-27 10:17:47,15.08842628,0.0002716,53.2171,128.3094,47.7074,312.4148,0.00013147,1.805e-05,0.0,0 STARLINK-3233,1 49746U 21115Y   22331.42902017  .00001805  00000-0  13147-3 0  9999,2 49746  53.2171 128.3094 0002716  47.7074 312.4148 15.08842628 54638,6917.871999999999,95.437,541.616,537.8580000000002,0.0
49746.0,STARLINK-3233,PAYLOAD,2022-11-27 19:50:05,15.08849358,0.0002706,53.217,126.5253,45.2364,314.8848,0.00011628,1.563e-05,0.0,0 STARLINK-3233,1 49746U 21115Y   22331.82645541  .00001563  00000-0  11628-3 0  9992,2 49746  53.2170 126.5253 0002706  45.2364 314.8848 15.08849358 55808,6917.852,95.437,541.589,537.845,0.0
49746.0,STARLINK-3233,PAYLOAD,2022-11-28 13:19:20,15.08840787,0.0002718,53.2166,123.2546,46.4651,313.6566,4.5609e-05,4.37e-06,0.0,0 STARLINK-3233,1 49746U 21115Y   22332.55510349  .00000437  00000-0  45609-4 0  9996,2 49746  53.2166 123.2546 0002718  46.4651 313.6566 15.08840787 55910,6917.878000000002,95.438,541.623,537.863,0.0
49746.0,STARLINK-3233,PAYLOAD,2022-11-28 16:30:07,15.08843606,0.000271,53.2169,122.6596,49.6332,310.4896,6.6796e-05,7.75e-06,0.0,0 STARLINK-3233,1 49746U 21115Y   22332.68758121  .00000775  00000-0  66796-4 0  9997,2 49746  53.2169 122.6596 0002710  49.6332 310.4896 15.08843606 54827,6917.869000000002,95.437,541.609,537.86,0.0
49746.0,STARLINK-3233,PAYLOAD,2022-11-29 03:37:48,15.08850028,0.000273,53.2171,120.5784,49.5818,310.5412,7.7158e-05,9.4e-06,0.0,0 STARLINK-3233,1 49746U 21115Y   22333.15125539  .00000940  00000-0  77158-4 0  9999,2 49746  53.2171 120.5784 0002730  49.5818 310.5412 15.08850028 56009,6917.85,95.437,541.6030000000002,537.826,0.0
49746.0,STARLINK-3233,PAYLOAD,2022-11-29 19:31:40,15.08843392,0.0002823,53.2176,117.6053,48.9429,311.1807,-9.9187e-06,-4.46e-06,0.0,0 STARLINK-3233,1 49746U 21115Y   22333.81366025 -.00000446  00000-0 -99187-5 0  9999,2 49746  53.2176 117.6053 0002823  48.9429 311.1807 15.08843392 56106,6917.87,95.437,541.688,537.7819999999998,0.0
